GOES 17                 
1 43226U 18022A   25334.77293991 -.00000161  00000+0  00000+0 0  9991
2 43226   0.4258  89.4021 0003362 180.3693 348.8934  1.00270302 28437
FENGYUN 2H              
1 43491U 18050A   25334.87785289 -.00000108  00000+0  00000+0 0  9994
2 43491   2.5174  81.4619 0002789 160.2671 223.6618  1.00271782 27454
METOP-C                 
1 43689U 18087A   25334.78539130  .00000143  00000+0  85130-4 0  9995
2 43689  98.6947  32.7371 0001800  61.7501 298.3858 14.21504563366646
GEO-KOMPSAT-2A          
1 43823U 18100A   25334.81623250 -.00000322  00000+0  00000+0 0  9990
2 43823   0.0594 123.9941 0000607  70.4763 297.5894  1.00271555 25646
METEOR-M2 2             
1 44387U 19038A   25334.86457550  .00000201  00000+0  10704-3 0  9991
2 44387  98.8962 314.4488 0000745 173.4257 186.6931 14.24283239333064
ARKTIKA-M 1             
1 47719U 21016A   25330.12769414 -.00000005  00000+0  00000+0 0  9999
2 47719  63.1753  86.2841 7194663 269.0636  15.7380  2.00612931 34715
FENGYUN 3E              
1 49008U 21062A   25334.83566855  .00000040  00000+0  39730-4 0  9994
2 49008  98.7476 335.4980 0000883 337.8238  22.2900 14.19877406228430
GOES 18                 
1 51850U 22021A   25334.76366652  .00000118  00000+0  00000+0 0  9992
2 51850   0.0090 118.0375 0000764 173.3817 276.4073  1.00272715  4606
