{
  "type": "FeatureCollection",
  "features": [
    {
      "type": "Feature",
      "properties": {
        "norad_id": 43226,
        "name": "GOES 17",
        "group": "weather",
        "lat": NaN,
        "lon": NaN,
        "alt_km": NaN,
        "timestamp": "2025-12-01T02:46:55.349538+00:00",
        "meta": {
          "OBJECT_NAME": "GOES 17",
          "OBJECT_ID": "2018-022A",
          "EPOCH": "2025-11-30T18:33:02.008224",
          "MEAN_MOTION": 1.00270302,
          "ECCENTRICITY": 0.0003362,
          "INCLINATION": 0.4258,
          "RA_OF_ASC_NODE": 89.4021,
          "ARG_OF_PERICENTER": 180.3693,
          "MEAN_ANOMALY": 348.8934,
          "EPHEMERIS_TYPE": 0,
          "CLASSIFICATION_TYPE": "U",
          "NORAD_CAT_ID": 43226,
          "ELEMENT_SET_NO": 999,
          "REV_AT_EPOCH": 2843,
          "BSTAR": 0,
          "MEAN_MOTION_DOT": -1.61e-06,
          "MEAN_MOTION_DDOT": 0
        }
      },
      "geometry": {
        "type": "Point",
        "coordinates": [
          NaN,
          NaN
        ]
      }
    },
    {
      "type": "Feature",
      "properties": {
        "norad_id": 43491,
        "name": "FENGYUN 2H",
        "group": "weather",
        "lat": NaN,
        "lon": NaN,
        "alt_km": NaN,
        "timestamp": "2025-12-01T02:46:55.349557+00:00",
        "meta": {
          "OBJECT_NAME": "FENGYUN 2H",
          "OBJECT_ID": "2018-050A",
          "EPOCH": "2025-11-30T21:04:06.489696",
          "MEAN_MOTION": 1.00271782,
          "ECCENTRICITY": 0.0002789,
          "INCLINATION": 2.5174,
          "RA_OF_ASC_NODE": 81.4619,
          "ARG_OF_PERICENTER": 160.2671,
          "MEAN_ANOMALY": 223.6618,
          "EPHEMERIS_TYPE": 0,
          "CLASSIFICATION_TYPE": "U",
          "NORAD_CAT_ID": 43491,
          "ELEMENT_SET_NO": 999,
          "REV_AT_EPOCH": 2745,
          "BSTAR": 0,
          "MEAN_MOTION_DOT": -1.08e-06,
          "MEAN_MOTION_DDOT": 0
        }
      },
      "geometry": {
        "type": "Point",
        "coordinates": [
          NaN,
          NaN
        ]
      }
    },
    {
      "type": "Feature",
      "properties": {
        "norad_id": 43689,
        "name": "METOP-C",
        "group": "weather",
        "lat": NaN,
        "lon": NaN,
        "alt_km": NaN,
        "timestamp": "2025-12-01T02:46:55.349575+00:00",
        "meta": {
          "OBJECT_NAME": "METOP-C",
          "OBJECT_ID": "2018-087A",
          "EPOCH": "2025-11-30T18:50:57.808320",
          "MEAN_MOTION": 14.21504563,
          "ECCENTRICITY": 0.00018,
          "INCLINATION": 98.6947,
          "RA_OF_ASC_NODE": 32.7371,
          "ARG_OF_PERICENTER": 61.7501,
          "MEAN_ANOMALY": 298.3858,
          "EPHEMERIS_TYPE": 0,
          "CLASSIFICATION_TYPE": "U",
          "NORAD_CAT_ID": 43689,
          "ELEMENT_SET_NO": 999,
          "REV_AT_EPOCH": 36664,
          "BSTAR": 8.513e-05,
          "MEAN_MOTION_DOT": 1.43e-06,
          "MEAN_MOTION_DDOT": 0
        }
      },
      "geometry": {
        "type": "Point",
        "coordinates": [
          NaN,
          NaN
        ]
      }
    },
    {
      "type": "Feature",
      "properties": {
        "norad_id": 43823,
        "name": "GEO-KOMPSAT-2A",
        "group": "weather",
        "lat": NaN,
        "lon": NaN,
        "alt_km": NaN,
        "timestamp": "2025-12-01T02:46:55.349593+00:00",
        "meta": {
          "OBJECT_NAME": "GEO-KOMPSAT-2A",
          "OBJECT_ID": "2018-100A",
          "EPOCH": "2025-11-30T19:35:22.488000",
          "MEAN_MOTION": 1.00271555,
          "ECCENTRICITY": 6.07e-05,
          "INCLINATION": 0.0594,
          "RA_OF_ASC_NODE": 123.9941,
          "ARG_OF_PERICENTER": 70.4763,
          "MEAN_ANOMALY": 297.5894,
          "EPHEMERIS_TYPE": 0,
          "CLASSIFICATION_TYPE": "U",
          "NORAD_CAT_ID": 43823,
          "ELEMENT_SET_NO": 999,
          "REV_AT_EPOCH": 2564,
          "BSTAR": 0,
          "MEAN_MOTION_DOT": -3.22e-06,
          "MEAN_MOTION_DDOT": 0
        }
      },
      "geometry": {
        "type": "Point",
        "coordinates": [
          NaN,
          NaN
        ]
      }
    },
    {
      "type": "Feature",
      "properties": {
        "norad_id": 44387,
        "name": "METEOR-M2 2",
        "group": "weather",
        "lat": NaN,
        "lon": NaN,
        "alt_km": NaN,
        "timestamp": "2025-12-01T02:46:55.349610+00:00",
        "meta": {
          "OBJECT_NAME": "METEOR-M2 2",
          "OBJECT_ID": "2019-038A",
          "EPOCH": "2025-11-30T20:44:59.323200",
          "MEAN_MOTION": 14.24283239,
          "ECCENTRICITY": 7.45e-05,
          "INCLINATION": 98.8962,
          "RA_OF_ASC_NODE": 314.4488,
          "ARG_OF_PERICENTER": 173.4257,
          "MEAN_ANOMALY": 186.6931,
          "EPHEMERIS_TYPE": 0,
          "CLASSIFICATION_TYPE": "U",
          "NORAD_CAT_ID": 44387,
          "ELEMENT_SET_NO": 999,
          "REV_AT_EPOCH": 33306,
          "BSTAR": 0.00010704,
          "MEAN_MOTION_DOT": 2.01e-06,
          "MEAN_MOTION_DDOT": 0
        }
      },
      "geometry": {
        "type": "Point",
        "coordinates": [
          NaN,
          NaN
        ]
      }
    },
    {
      "type": "Feature",
      "properties": {
        "norad_id": 47719,
        "name": "ARKTIKA-M 1",
        "group": "weather",
        "lat": NaN,
        "lon": NaN,
        "alt_km": NaN,
        "timestamp": "2025-12-01T02:46:55.349630+00:00",
        "meta": {
          "OBJECT_NAME": "ARKTIKA-M 1",
          "OBJECT_ID": "2021-016A",
          "EPOCH": "2025-11-26T03:03:52.773696",
          "MEAN_MOTION": 2.00612931,
          "ECCENTRICITY": 0.71946631,
          "INCLINATION": 63.1753,
          "RA_OF_ASC_NODE": 86.2841,
          "ARG_OF_PERICENTER": 269.0636,
          "MEAN_ANOMALY": 15.738,
          "EPHEMERIS_TYPE": 0,
          "CLASSIFICATION_TYPE": "U",
          "NORAD_CAT_ID": 47719,
          "ELEMENT_SET_NO": 999,
          "REV_AT_EPOCH": 3471,
          "BSTAR": 0,
          "MEAN_MOTION_DOT": -5e-08,
          "MEAN_MOTION_DDOT": 0
        }
      },
      "geometry": {
        "type": "Point",
        "coordinates": [
          NaN,
          NaN
        ]
      }
    },
    {
      "type": "Feature",
      "properties": {
        "norad_id": 49008,
        "name": "FENGYUN 3E",
        "group": "weather",
        "lat": NaN,
        "lon": NaN,
        "alt_km": NaN,
        "timestamp": "2025-12-01T02:46:55.349650+00:00",
        "meta": {
          "OBJECT_NAME": "FENGYUN 3E",
          "OBJECT_ID": "2021-062A",
          "EPOCH": "2025-11-30T20:03:21.762720",
          "MEAN_MOTION": 14.19877406,
          "ECCENTRICITY": 8.83e-05,
          "INCLINATION": 98.7476,
          "RA_OF_ASC_NODE": 335.498,
          "ARG_OF_PERICENTER": 337.8238,
          "MEAN_ANOMALY": 22.29,
          "EPHEMERIS_TYPE": 0,
          "CLASSIFICATION_TYPE": "U",
          "NORAD_CAT_ID": 49008,
          "ELEMENT_SET_NO": 999,
          "REV_AT_EPOCH": 22843,
          "BSTAR": 3.973e-05,
          "MEAN_MOTION_DOT": 4e-07,
          "MEAN_MOTION_DDOT": 0
        }
      },
      "geometry": {
        "type": "Point",
        "coordinates": [
          NaN,
          NaN
        ]
      }
    },
    {
      "type": "Feature",
      "properties": {
        "norad_id": 51850,
        "name": "GOES 18",
        "group": "weather",
        "lat": NaN,
        "lon": NaN,
        "alt_km": NaN,
        "timestamp": "2025-12-01T02:46:55.349667+00:00",
        "meta": {
          "OBJECT_NAME": "GOES 18",
          "OBJECT_ID": "2022-021A",
          "EPOCH": "2025-11-30T18:19:40.787328",
          "MEAN_MOTION": 1.00272715,
          "ECCENTRICITY": 7.64e-05,
          "INCLINATION": 0.009,
          "RA_OF_ASC_NODE": 118.0375,
          "ARG_OF_PERICENTER": 173.3817,
          "MEAN_ANOMALY": 276.4073,
          "EPHEMERIS_TYPE": 0,
          "CLASSIFICATION_TYPE": "U",
          "NORAD_CAT_ID": 51850,
          "ELEMENT_SET_NO": 999,
          "REV_AT_EPOCH": 460,
          "BSTAR": 0,
          "MEAN_MOTION_DOT": 1.18e-06,
          "MEAN_MOTION_DDOT": 0
        }
      },
      "geometry": {
        "type": "Point",
        "coordinates": [
          NaN,
          NaN
        ]
      }
    }
  ]
}